{
  "type": "FeatureCollection",
  "features": [
    {
      "type": "Feature",
      "bbox": null,
      "geometry": {
        "type": "MultiPolygon",
        "coordinates": [
          [
            [
              [
                612376.6770000001,
                1603792.2760000005
              ],
              [
                612351.5778000001,
                1603833.7124000005
              ],
              [
                612560.7023999998,
                1603903.3370999992
              ],
              [
                612393.3716000002,
                1603802.5044999998
              ],
              [
                612376.6770000001,
                1603792.2760000005
              ]
            ]
          ]
        ]
      },
      "properties": {
        "district": "Davanagere",
        "taluk": "Davanagere",
        "village": "Alur",
        "survey_number": "61",
        "source": "Karnataka LRI"
      }
    },
    {
      "type": "Feature",
      "bbox": null,
      "geometry": {
        "type": "MultiPolygon",
        "coordinates": [
          [
            [
              [
                612351.5778000001,
                1603833.7124000005
              ],
              [
                612376.6770000001,
                1603792.2760000005
              ],
              [
                612036.2367000002,
                1603577.1848000009
              ],
              [
                611876.4664000003,
                1603840.0385999996
              ],
              [
                611989.0845999997,
                1603843.5929000005
              ],
              [
                612010.3323999997,
                1603851.5505
              ],
              [
                612090.7611999996,
                1603791.2387000006
              ],
              [
                612145.4271999998,
                1603777.5900999997
              ],
              [
                612203.5100999996,
                1603784.4157999996
              ],
              [
                612285.5076000001,
                1603811.7153999992
              ],
              [
                612351.5778000001,
                1603833.7124000005
              ]
            ]
          ]
        ]
      },
      "properties": {
        "district": "Davanagere",
        "taluk": "Davanagere",
        "village": "Alur",
        "survey_number": "62",
        "source": "Karnataka LRI"
      }
    },
    {
      "type": "Feature",
      "bbox": null,
      "geometry": {
        "type": "MultiPolygon",
        "coordinates": [
          [
            [
              [
                611876.4664000003,
                1603840.0385999996
              ],
              [
                612036.2367000002,
                1603577.1848000009
              ],
              [
                611702.6465999996,
                1603365.5979999993
              ],
              [
                611441.0745000001,
                1603800.9163000006
              ],
              [
                611554.0675999997,
                1603867.0452999994
              ],
              [
                611570.7755000005,
                1603866.1324000005
              ],
              [
                611740.7554000001,
                1603842.2621
              ],
              [
                611862.9288999997,
                1603839.6114000008
              ],
              [
                611876.4664000003,
                1603840.0385999996
              ]
            ]
          ]
        ]
      },
      "properties": {
        "district": "Davanagere",
        "taluk": "Davanagere",
        "village": "Alur",
        "survey_number": "63",
        "source": "Karnataka LRI"
      }
    },
    {
      "type": "Feature",
      "bbox": null,
      "geometry": {
        "type": "MultiPolygon",
        "coordinates": [
          [
            [
              [
                611702.6465999996,
                1603365.5979999993
              ],
              [
                611364.8509,
                1603150.0372000001
              ],
              [
                611182.8543999996,
                1603445.9943000004
              ],
              [
                611126.0384,
                1603542.5219999999
              ],
              [
                611235.4129999997,
                1603649.0178999994
              ],
              [
                611295.4656999996,
                1603708.9968999997
              ],
              [
                611441.0745000001,
                1603800.9163000006
              ],
              [
                611702.6465999996,
                1603365.5979999993
              ]
            ]
          ]
        ]
      },
      "properties": {
        "district": "Davanagere",
        "taluk": "Davanagere",
        "village": "Alur",
        "survey_number": "64",
        "source": "Karnataka LRI"
      }
    },
    {
      "type": "Feature",
      "bbox": null,
      "geometry": {
        "type": "MultiPolygon",
        "coordinates": [
          [
            [
              [
                611126.0384,
                1603542.5219999999
              ],
              [
                611100.4960000003,
                1603585.9173000008
              ],
              [
                611295.4655999998,
                1603708.9968999997
              ],
              [
                611235.4129999997,
                1603649.0178999994
              ],
              [
                611126.0384,
                1603542.5219999999
              ]
            ]
          ]
        ]
      },
      "properties": {
        "district": "Davanagere",
        "taluk": "Davanagere",
        "village": "Alur",
        "survey_number": "64",
        "source": "Karnataka LRI"
      }
    },
    {
      "type": "Feature",
      "bbox": null,
      "geometry": {
        "type": "MultiPolygon",
        "coordinates": [
          [
            [
              [
                611364.8509,
                1603150.0372000001
              ],
              [
                611545.7301000003,
                1602859.8628000002
              ],
              [
                611631.2390000001,
                1602723.4905999992
              ],
              [
                611743.6360999998,
                1602558.5513000004
              ],
              [
                611429.1820999999,
                1602496.041099999
              ],
              [
                611437.881,
                1602531.1863000002
              ],
              [
                611453.0972999996,
                1602602.1973
              ],
              [
                611462.5591000002,
                1602653.5300999992
              ],
              [
                611480.0840999996,
                1602755.7853999995
              ],
              [
                611485.5800000001,
                1602789.0877999999
              ],
              [
                611456.6299,
                1602807.8158999998
              ],
              [
                611149.3441000003,
                1603006.3235
              ],
              [
                611101.5440999996,
                1602850.0428
              ],
              [
                610991.6035000002,
                1602925.7884
              ],
              [
                610882.2335000001,
                1603002.9868
              ],
              [
                610890.0020000003,
                1603019.8633999992
              ],
              [
                610919.2867,
                1603064.0065000001
              ],
              [
                610934.5236999998,
                1603112.3739999998
              ],
              [
                610937.2127,
                1603121.3310000002
              ],
              [
                610943.4869999997,
                1603151.784
              ],
              [
                610947.9688999997,
                1603164.3242000006
              ],
              [
                610949.6789999995,
                1603168.7389000002
              ],
              [
                611182.8543999996,
                1603445.9943000004
              ],
              [
                611364.8509,
                1603150.0372000001
              ]
            ]
          ]
        ]
      },
      "properties": {
        "district": "Davanagere",
        "taluk": "Davanagere",
        "village": "Alur",
        "survey_number": "65",
        "source": "Karnataka LRI"
      }
    },
    {
      "type": "Feature",
      "bbox": null,
      "geometry": {
        "type": "MultiPolygon",
        "coordinates": [
          [
            [
              [
                610882.2335000001,
                1603002.9868
              ],
              [
                610837.9610000001,
                1603034.236300001
              ],
              [
                610838.1867000004,
                1603034.6085
              ],
              [
                610925.2724000001,
                1603140.0802999996
              ],
              [
                610930.2631000001,
                1603145.6525999997
              ],
              [
                610949.6791000003,
                1603168.7389000002
              ],
              [
                610947.9688999997,
                1603164.3242000006
              ],
              [
                610943.4869999997,
                1603151.784
              ],
              [
                610937.2127,
                1603121.3310000002
              ],
              [
                610934.5236999998,
                1603112.3739999998
              ],
              [
                610919.2866000002,
                1603064.0065000001
              ],
              [
                610890.0020000003,
                1603019.8632999994
              ],
              [
                610882.2335000001,
                1603002.9868
              ]
            ]
          ]
        ]
      },
      "properties": {
        "district": "Davanagere",
        "taluk": "Davanagere",
        "village": "Alur",
        "survey_number": "65",
        "source": "Karnataka LRI"
      }
    }
  ]
}