{
  "type": "FeatureCollection",
  "features": [
    {
      "type": "Feature",
      "bbox": null,
      "geometry": {
        "type": "MultiPolygon",
        "coordinates": [
          [
            [
              [
                611876.4664000003,
                1603840.0385999996
              ],
              [
                612036.2367000002,
                1603577.1848000009
              ],
              [
                611702.6465999996,
                1603365.5979999993
              ],
              [
                611441.0745000001,
                1603800.9163000006
              ],
              [
                611554.0675999997,
                1603867.0452999994
              ],
              [
                611570.7755000005,
                1603866.1324000005
              ],
              [
                611740.7554000001,
                1603842.2621
              ],
              [
                611862.9288999997,
                1603839.6114000008
              ],
              [
                611876.4664000003,
                1603840.0385999996
              ]
            ]
          ]
        ]
      },
      "properties": null
    }
  ],
  "crs": null,
  "bbox": null
}